COMMENT,ORIGINATOR,NORAD_CAT_ID,OBJECT_NAME,OBJECT_TYPE,CLASSIFICATION_TYPE,INTLDES,EPOCH,EPOCH_MICROSECONDS,MEAN_MOTION,ECCENTRICITY,INCLINATION,RA_OF_ASC_NODE,ARG_OF_PERICENTER,MEAN_ANOMALY,EPHEMERIS_TYPE,ELEMENT_SET_NO,REV_AT_EPOCH,BSTAR,MEAN_MOTION_DOT,MEAN_MOTION_DDOT,FILE,TLE_LINE0,TLE_LINE1,TLE_LINE2,OBJECT_ID,OBJECT_NUMBER,SEMIMAJOR_AXIS,PERIOD,APOGEE,PERIGEE,DECAYED
"GENERATED VIA SPACETRACK.ORG API","18 SPCS","55095","SPACEBEE-162","PAYLOAD","U","23001CQ","2024-05-21 16:35:45","446208","15.44835783","0.0009861","97.4218","208.3696","232.5031","127.5321","0","999","7698","0.0017178","0.00081314","0","4323884","0 SPACEBEE-162","1 55095U 23001CQ  24142.69149822  .00081314  00000-0  17178-2 0  9997","2 55095  97.4218 208.3696 0009861 232.5031 127.5321 15.44835783 76980","2023-001CQ","55095","6809.998","93.214","438.578","425.147","0"
"GENERATED VIA SPACETRACK.ORG API","18 SPCS","55095","SPACEBEE-162","PAYLOAD","U","23001CQ","2024-05-22 03:28:39","698688","15.44919435","0.0010029","97.4219","208.8325","230.2946","129.742","0","999","7705","0.0017355","0.00082403","0","4324187","0 SPACEBEE-162","1 55095U 23001CQ  24143.14490392  .00082403  00000-0  17355-2 0  9996","2 55095  97.4219 208.8325 0010029 230.2946 129.7420 15.44919435 77053","2023-001CQ","55095","6809.752","93.209","438.446","424.787","0"
"GENERATED VIA SPACETRACK.ORG API","18 SPCS","55095","SPACEBEE-162","PAYLOAD","U","23001CQ","2024-05-22 03:28:39","698688","15.44919435","0.0010029","97.4219","208.8325","230.2946","129.742","0","999","7705","0.0017355","0.00082403","0","4324498","0 SPACEBEE-162","1 55095U 23001CQ  24143.14490392  .00082403  00000-0  17355-2 0  9996","2 55095  97.4219 208.8325 0010029 230.2946 129.7420 15.44919435 77053","2023-001CQ","55095","6809.752","93.209","438.446","424.787","0"
"GENERATED VIA SPACETRACK.ORG API","18 SPCS","55095","SPACEBEE-162","PAYLOAD","U","23001CQ","2024-05-23 04:20:53","579616","15.45092721","0.0010144","97.4218","209.8918","226.767","133.2732","0","999","7721","0.001493","0.00071196","0","4325042","0 SPACEBEE-162","1 55095U 23001CQ  24144.18117569  .00071196  00000-0  14930-2 0  9996","2 55095  97.4218 209.8918 0010144 226.7670 133.2732 15.45092721 77218","2023-001CQ","55095","6809.243","93.198","438.015","424.200","0"
"GENERATED VIA SPACETRACK.ORG API","18 SPCS","55095","SPACEBEE-162","PAYLOAD","U","23001CQ","2024-05-23 04:20:53","579616","15.45092721","0.0010144","97.4218","209.8918","226.767","133.2732","0","999","7721","0.001493","0.00071196","0","4325336","0 SPACEBEE-162","1 55095U 23001CQ  24144.18117569  .00071196  00000-0  14930-2 0  9996","2 55095  97.4218 209.8918 0010144 226.7670 133.2732 15.45092721 77218","2023-001CQ","55095","6809.243","93.198","438.015","424.200","0"
"GENERATED VIA SPACETRACK.ORG API","18 SPCS","55095","SPACEBEE-162","PAYLOAD","U","23001CQ","2024-05-23 15:13:41","530944","15.45166479","0.0010043","97.4219","210.3568","226.6589","133.3823","0","999","7728","0.001635","0.00078239","0","4325574","0 SPACEBEE-162","1 55095U 23001CQ  24144.63450846  .00078239  00000-0  16350-2 0  9997","2 55095  97.4219 210.3568 0010043 226.6589 133.3823 15.45166479 77284","2023-001CQ","55095","6809.026","93.194","437.729","424.053","0"
"GENERATED VIA SPACETRACK.ORG API","18 SPCS","55095","SPACEBEE-162","PAYLOAD","U","23001CQ","2024-05-24 03:39:42","473088","15.45260886","0.0010305","97.4216","210.885","223.941","136.102","0","999","7736","0.0018017","0.00086603","0","4325866","0 SPACEBEE-162","1 55095U 23001CQ  24145.15257492  .00086603  00000-0  18017-2 0  9993","2 55095  97.4216 210.8850 0010305 223.9410 136.1020 15.45260886 77360","2023-001CQ","55095","6808.749","93.188","437.630","423.597","0"
"GENERATED VIA SPACETRACK.ORG API","18 SPCS","55095","SPACEBEE-162","PAYLOAD","U","23001CQ","2024-05-24 03:39:42","473088","15.45260886","0.0010305","97.4216","210.885","223.941","136.102","0","999","7736","0.0018017","0.00086603","0","4326215","0 SPACEBEE-162","1 55095U 23001CQ  24145.15257492  .00086603  00000-0  18017-2 0  9993","2 55095  97.4216 210.8850 0010305 223.9410 136.1020 15.45260886 77360","2023-001CQ","55095","6808.749","93.188","437.630","423.597","0"
"GENERATED VIA SPACETRACK.ORG API","18 SPCS","55095","SPACEBEE-162","PAYLOAD","U","23001CQ","2024-05-24 19:12:09","774432","15.45378143","0.0010344","97.421","211.5468","221.5997","138.4466","0","999","7746","0.0017173","0.00082833","0","4326555","0 SPACEBEE-162","1 55095U 23001CQ  24145.80011313  .00082833  00000-0  17173-2 0  9998","2 55095  97.4210 211.5468 0010344 221.5997 138.4466 15.45378143 77460","2023-001CQ","55095","6808.404","93.181","437.312","423.227","0"
"GENERATED VIA SPACETRACK.ORG API","18 SPCS","55095","SPACEBEE-162","PAYLOAD","U","23001CQ","2024-05-25 04:31:36","273792","15.45435894","0.0010372","97.421","211.9439","220.1432","139.9051","0","999","7752","0.0013469","0.00064929","0","4326838","0 SPACEBEE-162","1 55095U 23001CQ  24146.18861428  .00064929  00000-0  13469-2 0  9990","2 55095  97.4210 211.9439 0010372 220.1432 139.9051 15.45435894 77522","2023-001CQ","55095","6808.235","93.178","437.161","423.038","0"
"GENERATED VIA SPACETRACK.ORG API","18 SPCS","55095","SPACEBEE-162","PAYLOAD","U","23001CQ","2024-05-25 04:31:36","273792","15.45435894","0.0010372","97.421","211.9439","220.1432","139.9051","0","999","7752","0.0013469","0.00064929","0","4327213","0 SPACEBEE-162","1 55095U 23001CQ  24146.18861428  .00064929  00000-0  13469-2 0  9990","2 55095  97.4210 211.9439 0010372 220.1432 139.9051 15.45435894 77522","2023-001CQ","55095","6808.235","93.178","437.161","423.038","0"
"GENERATED VIA SPACETRACK.ORG API","18 SPCS","55095","SPACEBEE-162","PAYLOAD","U","23001CQ","2024-05-26 03:50:07","380096","15.45571352","0.0010439","97.4206","212.937","217.0556","142.9973","0","999","7767","0.0014918","0.00072326","0","4328085","0 SPACEBEE-162","1 55095U 23001CQ  24147.15980764  .00072326  00000-0  14918-2 0  9993","2 55095  97.4206 212.9370 0010439 217.0556 142.9973 15.45571352 77671","2023-001CQ","55095","6807.837","93.169","436.808","422.595","0"
"GENERATED VIA SPACETRACK.ORG API","18 SPCS","55095","SPACEBEE-162","PAYLOAD","U","23001CQ","2024-05-26 03:50:07","380096","15.45571352","0.0010439","97.4206","212.937","217.0556","142.9973","0","999","7767","0.0014918","0.00072326","0","4328092","0 SPACEBEE-162","1 55095U 23001CQ  24147.15980764  .00072326  00000-0  14918-2 0  9993","2 55095  97.4206 212.9370 0010439 217.0556 142.9973 15.45571352 77671","2023-001CQ","55095","6807.837","93.169","436.808","422.595","0"
"GENERATED VIA SPACETRACK.ORG API","18 SPCS","55095","SPACEBEE-162","PAYLOAD","U","23001CQ","2024-05-26 16:15:57","153312","15.45630661","0.0010402","97.4203","213.4671","215.7565","144.2988","0","999","7775","0.0012391","0.00060087","0","4328401","0 SPACEBEE-162","1 55095U 23001CQ  24147.67774483  .00060087  00000-0  12391-2 0  9993","2 55095  97.4203 213.4671 0010402 215.7565 144.2988 15.45630661 77752","2023-001CQ","55095","6807.663","93.166","436.609","422.446","0"
"GENERATED VIA SPACETRACK.ORG API","18 SPCS","55095","SPACEBEE-162","PAYLOAD","U","23001CQ","2024-05-26 22:28:51","265344","15.45665612","0.001055","97.4204","213.7319","214.595","145.4614","0","999","7779","0.0013028","0.00063286","0","4328412","0 SPACEBEE-162","1 55095U 23001CQ  24147.93670446  .00063286  00000-0  13028-2 0  9998","2 55095  97.4204 213.7319 0010550 214.5950 145.4614 15.45665612 77791","2023-001CQ","55095","6807.560","93.164","436.607","422.243","0"
"GENERATED VIA SPACETRACK.ORG API","18 SPCS","55095","SPACEBEE-162","PAYLOAD","U","23001CQ","2024-05-27 10:54:38","274624","15.45723885","0.0010521","97.4204","214.2622","212.6371","147.4229","0","999","7787","0.0012646","0.00061535","0","4329170","0 SPACEBEE-162","1 55095U 23001CQ  24148.45460966  .00061535  00000-0  12646-2 0  9990","2 55095  97.4204 214.2622 0010521 212.6371 147.4229 15.45723885 77878","2023-001CQ","55095","6807.389","93.160","436.416","422.092","0"
"GENERATED VIA SPACETRACK.ORG API","18 SPCS","55095","SPACEBEE-162","PAYLOAD","U","23001CQ","2024-05-27 17:07:31","132992","15.45754666","0.0010377","97.42","214.5272","212.8895","147.171","0","999","7791","0.0011277","0.00054872","0","4329284","0 SPACEBEE-162","1 55095U 23001CQ  24148.71355478  .00054872  00000-0  11277-2 0  9995","2 55095  97.4200 214.5272 0010377 212.8895 147.1710 15.45754666 77918","2023-001CQ","55095","6807.299","93.158","436.227","422.100","0"
"GENERATED VIA SPACETRACK.ORG API","18 SPCS","55095","SPACEBEE-162","PAYLOAD","U","23001CQ","2024-05-27 17:07:31","132992","15.45754666","0.0010377","97.42","214.5272","212.8895","147.171","0","999","7791","0.0011277","0.00054872","0","4329288","0 SPACEBEE-162","1 55095U 23001CQ  24148.71355478  .00054872  00000-0  11277-2 0  9995","2 55095  97.4200 214.5272 0010377 212.8895 147.1710 15.45754666 77918","2023-001CQ","55095","6807.299","93.158","436.227","422.100","0"
"GENERATED VIA SPACETRACK.ORG API","18 SPCS","55095","SPACEBEE-162","PAYLOAD","U","23001CQ","2024-05-28 10:12:54","3456","15.4584336","0.0010616","97.4198","215.2554","210.1395","149.9244","0","999","7802","0.0012533","0.00061234","0","4329833","0 SPACEBEE-162","1 55095U 23001CQ  24149.42562504  .00061234  00000-0  12533-2 0  9990","2 55095  97.4198 215.2554 0010616 210.1395 149.9244 15.45843360 78022","2023-001CQ","55095","6807.038","93.153","436.130","421.677","0"
"GENERATED VIA SPACETRACK.ORG API","18 SPCS","55095","SPACEBEE-162","PAYLOAD","U","23001CQ","2024-05-28 10:12:54","3456","15.4584336","0.0010616","97.4198","215.2554","210.1395","149.9244","0","999","7802","0.0012533","0.00061234","0","4329851","0 SPACEBEE-162","1 55095U 23001CQ  24149.42562504  .00061234  00000-0  12533-2 0  9990","2 55095  97.4198 215.2554 0010616 210.1395 149.9244 15.45843360 78022","2023-001CQ","55095","6807.038","93.153","436.130","421.677","0"
